IRIDIUM 135             
1 43070U 17083A   26160.19795320 -.00000003  00000+0 -80412-5 0  9998
2 43070  86.3958 325.3567 0002089  91.3895 268.7540 14.34217562443008
IRIDIUM 138             
1 43071U 17083B   26160.15355581  .00000181  00000+0  57428-4 0  9991
2 43071  86.3975 325.0694 0002396  88.3868 271.7603 14.34218083442982
IRIDIUM 116             
1 43072U 17083C   26160.19161036  .00000141  00000+0  43129-4 0  9995
2 43072  86.3958 325.3452 0001863  94.6996 265.4413 14.34217682443028
IRIDIUM 130             
1 43073U 17083D   26160.15989660  .00000083  00000+0  22679-4 0  9995
2 43073  86.3967 325.6330 0001943  88.4288 271.7131 14.34218159442960
IRIDIUM 151             
1 43074U 17083E   26160.20429550  .00000091  00000+0  25453-4 0  9991
2 43074  86.3962 325.3975 0002106  91.6569 268.4868 14.34217919442994
IRIDIUM 134             
1 43075U 17083F   26160.17258266  .00000003  00000+0 -61079-5 0  9991
2 43075  86.3956 325.4186 0001982  89.3330 270.8093 14.34217699442952
IRIDIUM 137             
1 43076U 17083G   26160.18526797  .00000036  00000+0  57381-5 0  9996
2 43076  86.3962 325.5059 0002026 103.0356 257.1066 14.34217404443023
IRIDIUM 141             
1 43077U 17083H   26159.96962017  .00000004  00000+0 -55623-5 0  9993
2 43077  86.3956 325.4273 0002103  91.0101 269.1335 14.34217386442990
IRIDIUM 153             
1 43078U 17083J   26160.13110491  .00000022  00000+0  70236-6 0  9993
2 43078  86.3956 293.8398 0002333  90.7987 269.3476 14.34217599444121
IRIDIUM 131             
1 43079U 17083K   26160.16624031 -.00000026  00000+0 -16432-4 0  9999
2 43079  86.3961 325.5305 0002090  91.8981 268.2454 14.34217289442954
IRIDIUM 144             
1 43249U 18030A   26160.27698360 -.00000026  00000+0 -16505-4 0  9990
2 43249  86.3949 293.7081 0001933  94.9948 265.1469 14.34217307429002
IRIDIUM 149             
1 43250U 18030B   26160.28332694  .00000026  00000+0  20747-5 0  9990
2 43250  86.3951 293.6725 0002226  93.2322 266.9129 14.34217662429023
IRIDIUM 157             
1 43251U 18030C   26160.30235455  .00000039  00000+0  69155-5 0  9991
2 43251  86.3953 293.7174 0002186  94.0700 266.0746 14.34217741429001
IRIDIUM 140             
1 43252U 18030D   26160.11207656  .00000027  00000+0  27414-5 0  9992
2 43252  86.3953 293.8097 0002146  92.5251 267.6191 14.34217655429035
IRIDIUM 145             
1 43253U 18030E   26160.30869523  .00000144  00000+0  44485-4 0  9997
2 43253  86.3953 293.6996 0001880  97.3443 262.7967 14.34218256428991
IRIDIUM 146             
1 43254U 18030F   26160.28966914  .00000031  00000+0  40281-5 0  9993
2 43254  86.3953 293.7198 0002093  95.7087 264.4347 14.34217659429000
IRIDIUM 148             
1 43255U 18030G   26160.11841876  .00000002  00000+0 -65209-5 0  9991
2 43255  86.3951 293.8347 0002074  97.2494 262.8937 14.34217427429015
IRIDIUM 142             
1 43256U 18030H   26160.29601090  .00000057  00000+0  13392-4 0  9997
2 43256  86.3951 293.6496 0002042  96.3671 263.7757 14.34217959429000
IRIDIUM 150             
1 43257U 18030J   26160.12476166  .00000045  00000+0  89866-5 0  9991
2 43257  86.3956 293.8373 0002139  92.2563 267.8878 14.34217834429005
IRIDIUM 143             
1 43258U 18030K   26160.10573397 -.00000228  00000+0 -88462-4 0  9999
2 43258  86.3956 293.9375 0002073  94.7716 265.3716 14.34216802428932
IRIDIUM 161             
1 43478U 18047C   26160.26528124  .00000283  00000+0  78208-4 0  9992
2 43478  86.4481  91.7831 0002553  87.7812 272.3681 14.43278480423993
IRIDIUM 152             
1 43479U 18047D   26160.28775794  .00000021  00000+0  26042-6 0  9993
2 43479  86.3957  91.6349 0002366  83.9832 276.1633 14.34217734421358
IRIDIUM 147             
1 43480U 18047E   26160.29410008  .00000061  00000+0  14785-4 0  9993
2 43480  86.3960  91.6373 0002145  84.7374 275.4066 14.34217696421355
IRIDIUM 110             
1 43481U 18047F   26160.30044369  .00000005  00000+0 -54307-5 0  9993
2 43481  86.3961  91.7263 0002472  86.0089 274.1390 14.34217480421343
IRIDIUM 162             
1 43482U 18047G   26160.25898438  .00000293  00000+0  81017-4 0  9997
2 43482  86.4478  91.6769 0002340  83.2857 276.8611 14.43277144423984
IRIDIUM 160             
1 43569U 18061A   26160.17651009  .00000012  00000+0 -28088-5 0  9991
2 43569  86.3967  60.1467 0002266  86.4544 273.6911 14.34217729412229
IRIDIUM 166             
1 43570U 18061B   26159.78326931  .00000004  00000+0 -57454-5 0  9991
2 43570  86.3966  60.2614 0002007  84.8251 275.3174 14.34217493412199
IRIDIUM 158             
1 43571U 18061C   26160.23993579  .00000096  00000+0  27330-4 0  9991
2 43571  86.3965  60.0807 0002256  82.5382 277.6071 14.34217659412226
IRIDIUM 165             
1 43572U 18061D   26160.26530233  .00000167  00000+0  52462-4 0  9992
2 43572  86.3969  60.1161 0002082  85.9094 274.2340 14.34216462412255
IRIDIUM 155             
1 43573U 18061E   26160.22725063  .00000022  00000+0  89942-6 0  9991
2 43573  86.3963  60.0016 0002164  82.2454 277.8987 14.34217777412211
