OBJECT_NAME,OBJECT_ID,EPOCH,MEAN_MOTION,ECCENTRICITY,INCLINATION,RA_OF_ASC_NODE,ARG_OF_PERICENTER,MEAN_ANOMALY,EPHEMERIS_TYPE,CLASSIFICATION_TYPE,NORAD_CAT_ID,ELEMENT_SET_NO,REV_AT_EPOCH,BSTAR,MEAN_MOTION_DOT,MEAN_MOTION_DDOT
IRIDIUM 135,2017-083A,2026-06-09T04:45:03.156480,14.34217562,.0002089,86.3958,325.3567,91.3895,268.7540,0,U,43070,999,44300,-.8041154E-5,-.3E-7,0
IRIDIUM 138,2017-083B,2026-06-09T03:41:07.221984,14.34218083,.00023968,86.3975,325.0694,88.3868,271.7603,0,U,43071,999,44298,.57428279E-4,.181E-5,0
IRIDIUM 116,2017-083C,2026-06-09T04:35:55.135104,14.34217682,.00018638,86.3958,325.3452,94.6996,265.4413,0,U,43072,999,44302,.43129239E-4,.141E-5,0
IRIDIUM 130,2017-083D,2026-06-09T03:50:15.066240,14.34218159,.00019437,86.3967,325.6330,88.4288,271.7131,0,U,43073,999,44296,.2267929E-4,.83E-6,0
IRIDIUM 151,2017-083E,2026-06-09T04:54:11.131200,14.34217919,.00021065,86.3962,325.3975,91.6569,268.4868,0,U,43074,999,44299,.25453045E-4,.91E-6,0
IRIDIUM 134,2017-083F,2026-06-09T04:08:31.141824,14.34217699,.00019825,86.3956,325.4186,89.3330,270.8093,0,U,43075,999,44295,-.6107881E-5,.3E-7,0
IRIDIUM 137,2017-083G,2026-06-09T04:26:47.152608,14.34217404,.00020267,86.3962,325.5059,103.0356,257.1066,0,U,43076,999,44302,.5738122E-5,.36E-6,0
IRIDIUM 141,2017-083H,2026-06-08T23:16:15.182688,14.34217386,.00021031,86.3956,325.4273,91.0101,269.1335,0,U,43077,999,44299,-.556227E-5,.4E-7,0
IRIDIUM 153,2017-083J,2026-06-09T03:08:47.464224,14.34217599,.00023333,86.3956,293.8398,90.7987,269.3476,0,U,43078,999,44412,.702357E-6,.22E-6,0
IRIDIUM 131,2017-083K,2026-06-09T03:59:23.162784,14.34217289,.000209,86.3961,325.5305,91.8981,268.2454,0,U,43079,999,44295,-.16431711E-4,-.26E-6,0
IRIDIUM 144,2018-030A,2026-06-09T06:38:51.383040,14.34217307,.00019334,86.3949,293.7081,94.9948,265.1469,0,U,43249,999,42900,-.16505071E-4,-.26E-6,0
IRIDIUM 149,2018-030B,2026-06-09T06:47:59.447616,14.34217662,.00022265,86.3951,293.6725,93.2322,266.9129,0,U,43250,999,42902,.2074702E-5,.26E-6,0
IRIDIUM 157,2018-030C,2026-06-09T07:15:23.433120,14.34217741,.00021867,86.3953,293.7174,94.0700,266.0746,0,U,43251,999,42900,.6915509E-5,.39E-6,0
IRIDIUM 140,2018-030D,2026-06-09T02:41:23.414784,14.34217655,.00021462,86.3953,293.8097,92.5251,267.6191,0,U,43252,999,42903,.2741382E-5,.27E-6,0
IRIDIUM 145,2018-030E,2026-06-09T07:24:31.267872,14.34218256,.000188,86.3953,293.6996,97.3443,262.7967,0,U,43253,999,42899,.44484502E-4,.144E-5,0
IRIDIUM 146,2018-030F,2026-06-09T06:57:07.413696,14.34217659,.00020938,86.3953,293.7198,95.7087,264.4347,0,U,43254,999,42900,.4028056E-5,.31E-6,0
IRIDIUM 148,2018-030G,2026-06-09T02:50:31.380864,14.34217427,.00020745,86.3951,293.8347,97.2494,262.8937,0,U,43255,999,42901,-.6520948E-5,.2E-7,0
IRIDIUM 142,2018-030H,2026-06-09T07:06:15.341760,14.34217959,.00020423,86.3951,293.6496,96.3671,263.7757,0,U,43256,999,42900,.13391991E-4,.57E-6,0
IRIDIUM 150,2018-030J,2026-06-09T02:59:39.407424,14.34217834,.00021392,86.3956,293.8373,92.2563,267.8878,0,U,43257,999,42900,.8986622E-5,.45E-6,0
IRIDIUM 143,2018-030K,2026-06-09T02:32:15.415008,14.34216802,.00020733,86.3956,293.9375,94.7716,265.3716,0,U,43258,999,42893,-.88461923E-4,-.228E-5,0
IRIDIUM 161,2018-047C,2026-06-09T06:22:00.299136,14.43278480,.00025533,86.4481,91.7831,87.7812,272.3681,0,U,43478,999,42399,.78208398E-4,.283E-5,0
IRIDIUM 152,2018-047D,2026-06-09T06:54:22.286016,14.34217734,.00023669,86.3957,91.6349,83.9832,276.1633,0,U,43479,999,42135,.260425E-6,.21E-6,0
IRIDIUM 147,2018-047E,2026-06-09T07:03:30.246912,14.34217696,.00021452,86.3960,91.6373,84.7374,275.4066,0,U,43480,999,42135,.14785166E-4,.61E-6,0
IRIDIUM 110,2018-047F,2026-06-09T07:12:38.334816,14.34217480,.00024728,86.3961,91.7263,86.0089,274.1390,0,U,43481,999,42134,-.5430739E-5,.5E-7,0
IRIDIUM 162,2018-047G,2026-06-09T06:12:56.250432,14.43277144,.00023409,86.4478,91.6769,83.2857,276.8611,0,U,43482,999,42398,.81016764E-4,.293E-5,0
IRIDIUM 160,2018-061A,2026-06-09T04:14:10.471776,14.34217729,.00022665,86.3967,60.1467,86.4544,273.6911,0,U,43569,999,41222,-.2808772E-5,.12E-6,0
IRIDIUM 166,2018-061B,2026-06-08T18:47:54.468384,14.34217493,.00020077,86.3966,60.2614,84.8251,275.3174,0,U,43570,999,41219,-.5745418E-5,.4E-7,0
IRIDIUM 158,2018-061C,2026-06-09T05:45:30.452256,14.34217659,.00022567,86.3965,60.0807,82.5382,277.6071,0,U,43571,999,41222,.27330146E-4,.96E-6,0
IRIDIUM 165,2018-061D,2026-06-09T06:22:02.121312,14.34216462,.00020821,86.3969,60.1161,85.9094,274.2340,0,U,43572,999,41225,.52462257E-4,.167E-5,0
IRIDIUM 155,2018-061E,2026-06-09T05:27:14.454432,14.34217777,.00021642,86.3963,60.0016,82.2454,277.8987,0,U,43573,999,41221,.899416E-6,.22E-6,0
